LINGQIAO VIDEO A        
1 40959U 15057B   26177.77576449  .00000753  00000+0  11244-3 0  9996
2 40959  97.6621 172.1046 0015280 236.0665 123.9094 14.77404753576823
LINGQIAO VIDEO B        
1 40960U 15057C   26177.75174824  .00000922  00000+0  13586-3 0  9996
2 40960  97.6587 173.2426 0015451 236.1222 123.8519 14.77510957576869
JILIN-1                 
1 40961U 15057D   26177.69332001  .00000765  00000+0  11208-3 0  9997
2 40961  97.6509 176.5880 0015659 229.0069 130.9789 14.78174309577018
FOX-1A (AO-85)          
1 40967U 15058D   26177.60875044  .00002109  00000+0  19593-3 0  9993
2 40967  64.7749 249.7037 0131014  52.9293 308.3713 14.91006682114971
SINOD-D 1               
1 40968U 15058E   26177.43763045  .00003234  00000+0  26324-3 0  9992
2 40968  64.7739 229.9429 0119663  49.4285 311.7170 14.95955298118041
ELEKTRO-L 2             
1 41105U 15074A   26176.94987031 -.00000113  00000+0  00000+0 0  9995
2 41105   6.7170  70.4166 0000727 286.6211 244.4527  1.00271163 38594
DAMPE                   
1 41173U 15078A   26177.71206796  .00001485  00000+0  52398-4 0  9996
2 41173  97.4561 183.2258 0013407  47.8135 312.4241 15.30808871586009
ORBCOMM FM110           
1 41182U 15081D   26177.69190084  .00000590  00000+0  16101-3 0  9996
2 41182  47.0031 316.5018 0002613 132.8455 227.2650 14.58893336559011
ORBCOMM FM112           
1 41184U 15081F   26177.52510522  .00000343  00000+0  10883-3 0  9990
2 41184  46.9976 226.0906 0004102 254.9031 105.1401 14.58913881560312
ORBCOMM FM113           
1 41185U 15081G   26177.43354869  .00000279  00000+0  95347-4 0  9998
2 41185  46.9993 226.9043 0002586 256.4243 103.6355 14.58866013560280
ORBCOMM FM108           
1 41187U 15081J   26177.60130584  .00000552  00000+0  15290-3 0  9997
2 41187  47.0041 137.6869 0003172 256.8834 103.1698 14.58884724561458
ORBCOMM FM117           
1 41188U 15081K   26177.56688240  .00000289  00000+0  97330-4 0  9993
2 41188  47.0000 136.4805 0003648 260.3036  99.7438 14.58871605561493
ORBCOMM FM116           
1 41189U 15081L   26177.41023061  .00000393  00000+0  11934-3 0  9993
2 41189  47.0009 227.0123 0000687 156.2927 203.7991 14.58893255560287
HORYU-4                 
1 41340U 16012D   26177.60135035  .00981345  51298-3  11416-2 0  9991
2 41340  30.9826   9.3933 0008771 328.5167  31.4973 16.07657648572320
ZIYUAN 3-02 (ZY 3-02)   
1 41556U 16033A   26177.72744721  .00005017  00000+0  22715-3 0  9993
2 41556  97.3839 253.3181 0012483 253.7984 106.1878 15.21264993559430
CARTOSAT-2C             
1 41599U 16040A   26177.74269604  .00005258  00000+0  25227-3 0  9990
2 41599  97.4484 237.5892 0010541 101.9957 258.2459 15.19264713555161
LAPAN-A3                
1 41603U 16040E   26177.72033473  .00003898  00000+0  12386-3 0  9997
2 41603  97.1487 173.5528 0009663 352.5383   7.5714 15.33163675556275
GAOFEN-3                
1 41727U 16049A   26177.72751938 -.00000064  00000+0 -62282-5 0  9992
2 41727  98.4013 185.3694 0001589  97.0306 263.1064 14.42216023520028
CAS-2T & KS-1Q          
1 41847U 16066G   26177.72919289  .00001560  00000+0  22505-3 0  9991
2 41847  98.3821 253.3565 0342905 100.6280 263.3719 14.44723586506170
YUNHAI-1 01             
1 41857U 16068A   26177.73578044  .00000203  00000+0  91425-4 0  9996
2 41857  98.5846 188.6528 0005626  32.7044 327.4487 14.32428642503193
RESOURCESAT-2A          
1 41877U 16074A   26177.71313797  .00000149  00000+0  87902-4 0  9999
2 41877  98.7527 251.1399 0003226  65.3724 294.7789 14.21619347495650
TANSAT                  
1 41898U 16081A   26177.77492288  .00000337  00000+0  80786-4 0  9991
2 41898  98.5365 178.3160 0019150 280.8676  79.0368 14.59957930506025
JILIN-1 03              
1 41914U 17002B   26177.69698909  .00013027  00000+0  30923-3 0  9990
2 41914  97.1944 184.6480 0007685 127.8545 232.3399 15.41796549523321
CARTOSAT-2D             
1 41948U 17008A   26177.70878608  .00006650  00000+0  31834-3 0  9997
2 41948  97.4105 236.8371 0004636 195.6503 164.4590 15.19278606519023
